start=new Date('2022-10-06T00:00:00.000Z').valueOf();
sats=[{"MEAN_ELEMENT_THEORY":"SGP4","INCLINATION":"53.2178","MEAN_MOTION":"15.08840179","MEAN_MOTION_DDOT":"0.0000000000000","FILE":"3593077","TLE_LINE2":"2 52370  53.2178  44.7587 0002360  41.4456 318.6715 15.08840179 27075","TIME_SYSTEM":"UTC","OBJECT_TYPE":"PAYLOAD","MEAN_MOTION_DOT":"-0.00001397","SITE":"AFETR","PERIOD":"95.438","ELEMENT_SET_NO":"999","OBJECT_ID":"2022-045AR","SEMIMAJOR_AXIS":"6917.880","MEAN_ANOMALY":"318.6715","CLASSIFICATION_TYPE":"U","ECCENTRICITY":"0.00023600","EPOCH":"2022-10-05T18:15:32.944608","ARG_OF_PERICENTER":"41.4456","EPHEMERIS_TYPE":"0","RA_OF_ASC_NODE":"44.7587","COUNTRY_CODE":"US","DECAY_DATE":null,"RCS_SIZE":"LARGE","PERIAPSIS":"538.112","OBJECT_NAME":"STARLINK-3827","APOAPSIS":"541.377","NORAD_CAT_ID":"52370","CENTER_NAME":"EARTH","TLE_LINE1":"1 52370U 22045AR  22278.76079797 -.00001397  00000-0 -69639-4 0  9992","GP_ID":"214277261","BSTAR":"-0.00006963900000","REV_AT_EPOCH":"2707","REF_FRAME":"TEME","LAUNCH_DATE":"2022-04-29"},{"SEMIMAJOR_AXIS":"6917.872","EPOCH":"2022-10-05T08:37:55.549344","ECCENTRICITY":"0.00020170","CLASSIFICATION_TYPE":"U","MEAN_ANOMALY":"304.1107","ELEMENT_SET_NO":"999","PERIOD":"95.437","OBJECT_ID":"2022-045AS","MEAN_MOTION_DOT":"-0.00001578","OBJECT_TYPE":"PAYLOAD","TIME_SYSTEM":"UTC","TLE_LINE2":"2 52371  53.2181  46.5521 0002017  56.0077 304.1107 15.08842788 27004","FILE":"3592692","SITE":"AFETR","MEAN_MOTION":"15.08842788","INCLINATION":"53.2181","MEAN_ELEMENT_THEORY":"SGP4","MEAN_MOTION_DDOT":"0.0000000000000","TLE_LINE1":"1 52371U 22045AS  22278.35967071 -.00001578  00000-0 -81051-4 0  9992","GP_ID":"214243061","REF_FRAME":"TEME","LAUNCH_DATE":"2022-04-29","BSTAR":"-0.00008105100000","REV_AT_EPOCH":"2700","APOAPSIS":"541.132","CENTER_NAME":"EARTH","NORAD_CAT_ID":"52371","DECAY_DATE":null,"RCS_SIZE":"LARGE","COUNTRY_CODE":"US","OBJECT_NAME":"STARLINK-3798","PERIAPSIS":"538.342","RA_OF_ASC_NODE":"46.5521","ARG_OF_PERICENTER":"56.0077","EPHEMERIS_TYPE":"0"},{"PERIOD":"95.438","ELEMENT_SET_NO":"999","OBJECT_ID":"2022-045AT","SEMIMAJOR_AXIS":"6917.902","ECCENTRICITY":"0.00024980","EPOCH":"2022-10-05T11:38:06.392544","MEAN_ANOMALY":"295.9430","CLASSIFICATION_TYPE":"U","INCLINATION":"53.2158","MEAN_MOTION":"15.08832843","MEAN_ELEMENT_THEORY":"SGP4","MEAN_MOTION_DDOT":"0.0000000000000","TIME_SYSTEM":"UTC","OBJECT_TYPE":"PAYLOAD","MEAN_MOTION_DOT":"-0.00001775","FILE":"3592692","TLE_LINE2":"2 52372  53.2158  45.9830 0002498  64.1820 295.9430 15.08832843 27023","SITE":"AFETR","APOAPSIS":"541.495","CENTER_NAME":"EARTH","NORAD_CAT_ID":"52372","GP_ID":"214244313","TLE_LINE1":"1 52372U 22045AT  22278.48479621 -.00001775  00000-0 -93453-4 0  9994","BSTAR":"-0.00009345300000","REV_AT_EPOCH":"2702","REF_FRAME":"TEME","LAUNCH_DATE":"2022-04-29","EPHEMERIS_TYPE":"0","ARG_OF_PERICENTER":"64.1820","RA_OF_ASC_NODE":"45.9830","RCS_SIZE":"LARGE","DECAY_DATE":null,"COUNTRY_CODE":"US","OBJECT_NAME":"STARLINK-3796","PERIAPSIS":"538.039"},{"RA_OF_ASC_NODE":"46.3290","ARG_OF_PERICENTER":"54.8609","EPHEMERIS_TYPE":"0","PERIAPSIS":"538.346","OBJECT_NAME":"STARLINK-3550","COUNTRY_CODE":"US","DECAY_DATE":null,"RCS_SIZE":"LARGE","NORAD_CAT_ID":"52373","CENTER_NAME":"EARTH","APOAPSIS":"541.130","REF_FRAME":"TEME","LAUNCH_DATE":"2022-04-29","REV_AT_EPOCH":"2702","BSTAR":"-0.00007552100000","GP_ID":"214244063","TLE_LINE1":"1 52373U 22045AU  22278.40751593 -.00001490  00000-0 -75521-4 0  9998","MEAN_MOTION_DDOT":"0.0000000000000","MEAN_ELEMENT_THEORY":"SGP4","MEAN_MOTION":"15.08842350","INCLINATION":"53.2184","SITE":"AFETR","FILE":"3592692","TLE_LINE2":"2 52373  53.2184  46.3290 0002012  54.8609 305.2571 15.08842350 27026","OBJECT_TYPE":"PAYLOAD","MEAN_MOTION_DOT":"-0.00001490","TIME_SYSTEM":"UTC","OBJECT_ID":"2022-045AU","ELEMENT_SET_NO":"999","PERIOD":"95.437","CLASSIFICATION_TYPE":"U","MEAN_ANOMALY":"305.2571","EPOCH":"2022-10-05T09:46:49.376352","ECCENTRICITY":"0.00020120","SEMIMAJOR_AXIS":"6917.873"},{"PERIOD":"95.438","ELEMENT_SET_NO":"999","OBJECT_ID":"2022-045AV","SEMIMAJOR_AXIS":"6917.909","EPOCH":"2022-10-05T19:24:26.215200","ECCENTRICITY":"0.00018440","CLASSIFICATION_TYPE":"U","MEAN_ANOMALY":"311.3961","INCLINATION":"53.2182","MEAN_MOTION":"15.08830801","MEAN_ELEMENT_THEORY":"SGP4","MEAN_MOTION_DDOT":"0.0000000000000","OBJECT_TYPE":"PAYLOAD","MEAN_MOTION_DOT":"-0.00001107","TIME_SYSTEM":"UTC","FILE":"3593077","TLE_LINE2":"2 52374  53.2182  44.5285 0001844  48.7190 311.3961 15.08830801 27083","SITE":"AFETR","APOAPSIS":"541.049","CENTER_NAME":"EARTH","NORAD_CAT_ID":"52374","TLE_LINE1":"1 52374U 22045AV  22278.80863675 -.00001107  00000-0 -51487-4 0  9998","GP_ID":"214276762","REF_FRAME":"TEME","LAUNCH_DATE":"2022-04-29","BSTAR":"-0.00005148700000","REV_AT_EPOCH":"2708","RA_OF_ASC_NODE":"44.5285","ARG_OF_PERICENTER":"48.7190","EPHEMERIS_TYPE":"0","RCS_SIZE":"LARGE","DECAY_DATE":null,"COUNTRY_CODE":"US","OBJECT_NAME":"STARLINK-3762","PERIAPSIS":"538.498"},{"OBJECT_NAME":"STARLINK-3785","PERIAPSIS":"538.539","RCS_SIZE":"LARGE","DECAY_DATE":null,"COUNTRY_CODE":"US","ARG_OF_PERICENTER":"49.5620","EPHEMERIS_TYPE":"0","RA_OF_ASC_NODE":"44.8141","BSTAR":"-0.00011352000000","REV_AT_EPOCH":"2707","LAUNCH_DATE":"2022-04-29","REF_FRAME":"TEME","GP_ID":"214277008","TLE_LINE1":"1 52375U 22045AW  22278.74607558 -.00002094  00000-0 -11352-3 0  9990","CENTER_NAME":"EARTH","NORAD_CAT_ID":"52375","APOAPSIS":"540.964","SITE":"AFETR","TIME_SYSTEM":"UTC","OBJECT_TYPE":"PAYLOAD","MEAN_MOTION_DOT":"-0.00002094","TLE_LINE2":"2 52375  53.2186  44.8141 0001753  49.5620 310.5525 15.08837940 27075","FILE":"3593077","MEAN_MOTION_DDOT":"0.0000000000000","MEAN_MOTION":"15.08837940","INCLINATION":"53.2186","MEAN_ELEMENT_THEORY":"SGP4","ECCENTRICITY":"0.00017530","EPOCH":"2022-10-05T17:54:20.930112","MEAN_ANOMALY":"310.5525","CLASSIFICATION_TYPE":"U","SEMIMAJOR_AXIS":"6917.887","OBJECT_ID":"2022-045AW","ELEMENT_SET_NO":"999","PERIOD":"95.438"},{"PERIAPSIS":"538.331","OBJECT_NAME":"STARLINK-3767","COUNTRY_CODE":"US","RCS_SIZE":"LARGE","DECAY_DATE":null,"RA_OF_ASC_NODE":"44.8608","EPHEMERIS_TYPE":"0","ARG_OF_PERICENTER":"46.2386","REF_FRAME":"TEME","LAUNCH_DATE":"2022-04-29","BSTAR":"0.00001561000000","REV_AT_EPOCH":"2707","GP_ID":"214276261","TLE_LINE1":"1 52376U 22045AX  22278.73503227 -.00000040  00000-0  15610-4 0  9998","NORAD_CAT_ID":"52376","CENTER_NAME":"EARTH","APOAPSIS":"541.163","SITE":"AFETR","FILE":"3593077","TLE_LINE2":"2 52376  53.2169  44.8608 0002047  46.2386 313.8775 15.08839426 27079","OBJECT_TYPE":"PAYLOAD","MEAN_MOTION_DOT":"-0.00000040","TIME_SYSTEM":"UTC","MEAN_MOTION_DDOT":"0.0000000000000","MEAN_ELEMENT_THEORY":"SGP4","MEAN_MOTION":"15.08839426","INCLINATION":"53.2169","CLASSIFICATION_TYPE":"U","MEAN_ANOMALY":"313.8775","EPOCH":"2022-10-05T17:38:26.788128","ECCENTRICITY":"0.00020470","SEMIMAJOR_AXIS":"6917.882","OBJECT_ID":"2022-045AX","ELEMENT_SET_NO":"999","PERIOD":"95.438"},{"ARG_OF_PERICENTER":"37.5752","EPHEMERIS_TYPE":"0","RA_OF_ASC_NODE":"46.6456","COUNTRY_CODE":"US","RCS_SIZE":"LARGE","DECAY_DATE":null,"PERIAPSIS":"538.576","OBJECT_NAME":"STARLINK-3805","APOAPSIS":"540.917","NORAD_CAT_ID":"52377","CENTER_NAME":"EARTH","GP_ID":"214244564","TLE_LINE1":"1 52377U 22045AY  22278.33854675 -.00000429  00000-0 -88589-5 0  9999","BSTAR":"-0.00000885890000","REV_AT_EPOCH":"2700","LAUNCH_DATE":"2022-04-29","REF_FRAME":"TEME","MEAN_ELEMENT_THEORY":"SGP4","MEAN_MOTION":"15.08839728","INCLINATION":"53.2206","MEAN_MOTION_DDOT":"0.0000000000000","TLE_LINE2":"2 52377  53.2206  46.6456 0001692  37.5752 322.5358 15.08839728 27000","FILE":"3592692","TIME_SYSTEM":"UTC","MEAN_MOTION_DOT":"-0.00000429","OBJECT_TYPE":"PAYLOAD","SITE":"AFETR","ELEMENT_SET_NO":"999","PERIOD":"95.438","OBJECT_ID":"2022-045AY","SEMIMAJOR_AXIS":"6917.881","MEAN_ANOMALY":"322.5358","CLASSIFICATION_TYPE":"U","ECCENTRICITY":"0.00016920","EPOCH":"2022-10-05T08:07:30.439200"},{"TLE_LINE2":"2 52378  53.2198  47.8674 0002032  38.7804 321.3334 15.08843239 26974","FILE":"3592692","OBJECT_TYPE":"PAYLOAD","MEAN_MOTION_DOT":"-0.00000044","TIME_SYSTEM":"UTC","SITE":"AFETR","MEAN_ELEMENT_THEORY":"SGP4","INCLINATION":"53.2198","MEAN_MOTION":"15.08843239","MEAN_MOTION_DDOT":"0.0000000000000","SEMIMAJOR_AXIS":"6917.870","CLASSIFICATION_TYPE":"U","MEAN_ANOMALY":"321.3334","EPOCH":"2022-10-05T01:33:59.457600","ECCENTRICITY":"0.00020320","ELEMENT_SET_NO":"999","PERIOD":"95.437","OBJECT_ID":"2022-045AZ","COUNTRY_CODE":"US","DECAY_DATE":null,"RCS_SIZE":"LARGE","PERIAPSIS":"538.330","OBJECT_NAME":"STARLINK-3806","RA_OF_ASC_NODE":"47.8674","ARG_OF_PERICENTER":"38.7804","EPHEMERIS_TYPE":"0","TLE_LINE1":"1 52378U 22045AZ  22278.06527150 -.00000044  00000-0  15364-4 0  9997","GP_ID":"214243312","LAUNCH_DATE":"2022-04-29","REF_FRAME":"TEME","BSTAR":"0.00001536400000","REV_AT_EPOCH":"2697","APOAPSIS":"541.141","NORAD_CAT_ID":"52378","CENTER_NAME":"EARTH"},{"OBJECT_ID":"2022-045BA","ELEMENT_SET_NO":"999","PERIOD":"95.438","MEAN_ANOMALY":"302.2045","CLASSIFICATION_TYPE":"U","ECCENTRICITY":"0.00016060","EPOCH":"2022-10-05T17:33:09.287136","SEMIMAJOR_AXIS":"6917.903","MEAN_MOTION_DDOT":"0.0000000000000","MEAN_ELEMENT_THEORY":"SGP4","MEAN_MOTION":"15.08832446","INCLINATION":"53.2190","SITE":"AFETR","TLE_LINE2":"2 52379  53.2190  44.8793 0001606  57.9103 302.2045 15.08832446 27074","FILE":"3593077","TIME_SYSTEM":"UTC","MEAN_MOTION_DOT":"-0.00004007","OBJECT_TYPE":"PAYLOAD","NORAD_CAT_ID":"52379","CENTER_NAME":"EARTH","APOAPSIS":"540.879","BSTAR":"-0.00023386000000","REV_AT_EPOCH":"2707","REF_FRAME":"TEME","LAUNCH_DATE":"2022-04-29","GP_ID":"214277508","TLE_LINE1":"1 52379U 22045BA  22278.73135749 -.00004007  00000-0 -23386-3 0  9997","EPHEMERIS_TYPE":"0","ARG_OF_PERICENTER":"57.9103","RA_OF_ASC_NODE":"44.8793","PERIAPSIS":"538.657","OBJECT_NAME":"STARLINK-3800","COUNTRY_CODE":"US","RCS_SIZE":"LARGE","DECAY_DATE":null}];
